{
    "links": {
        "self": "http://www.neowsapp.com/rest/v1/neo/3602159?api_key=iIulBulltgU6a56xZRHN4H3l9WmuAYTsLGpBGhQ2"
    },
    "id": "3602159",
    "neo_reference_id": "3602159",
    "name": "(2012 GD)",
    "designation": "2012 GD",
    "nasa_jpl_url": "http://ssd.jpl.nasa.gov/sbdb.cgi?sstr=3602159",
    "absolute_magnitude_h": 26.9,
    "estimated_diameter": {
        "kilometers": {
            "estimated_diameter_min": 0.0110803882,
            "estimated_diameter_max": 0.0247765013
        },
        "meters": {
            "estimated_diameter_min": 11.0803882126,
            "estimated_diameter_max": 24.7765012606
        },
        "miles": {
            "estimated_diameter_min": 0.0068850319,
            "estimated_diameter_max": 0.0153953994
        },
        "feet": {
            "estimated_diameter_min": 36.3529808636,
            "estimated_diameter_max": 81.2877363957
        }
    },
    "is_potentially_hazardous_asteroid": false,
    "close_approach_data": [
        {
            "close_approach_date": "1915-03-13",
            "close_approach_date_full": "1915-Mar-13 03:44",
            "epoch_date_close_approach": -1729541760000,
            "relative_velocity": {
                "kilometers_per_second": "20.1191782084",
                "kilometers_per_hour": "72429.0415501946",
                "miles_per_hour": "45004.5897343418"
            },
            "miss_distance": {
                "astronomical": "0.3763913298",
                "lunar": "146.4162272922",
                "kilometers": "56307341.224547526",
                "miles": "34987759.4329708188"
            },
            "orbiting_body": "Earth"
        },
        {
            "close_approach_date": "1937-07-16",
            "close_approach_date_full": "1937-Jul-16 10:06",
            "epoch_date_close_approach": -1024408440000,
            "relative_velocity": {
                "kilometers_per_second": "18.7134544386",
                "kilometers_per_hour": "67368.4359791314",
                "miles_per_hour": "41860.1262338108"
            },
            "miss_distance": {
                "astronomical": "0.3276606977",
                "lunar": "127.4600114053",
                "kilometers": "49017342.458633899",
                "miles": "30457964.2492258462"
            },
            "orbiting_body": "Earth"
        },
        {
            "close_approach_date": "2012-04-10",
            "close_approach_date_full": "2012-Apr-10 08:35",
            "epoch_date_close_approach": 1334046900000,
            "relative_velocity": {
                "kilometers_per_second": "9.5210343749",
                "kilometers_per_hour": "34275.7237497532",
                "miles_per_hour": "21297.6017932841"
            },
            "miss_distance": {
                "astronomical": "0.0242310094",
                "lunar": "9.4258626566",
                "kilometers": "3624907.394189978",
                "miles": "2252413.0089705764"
            },
            "orbiting_body": "Earth"
        }
    ],
    "orbital_data": {
        "orbit_id": "6",
        "orbit_determination_date": "2017-04-06 08:50:12",
        "first_observation_date": "2012-04-01",
        "last_observation_date": "2012-04-06",
        "data_arc_in_days": 5,
        "observations_used": 17,
        "orbit_uncertainty": "8",
        "minimum_orbit_intersection": ".000479087",
        "jupiter_tisserand_invariant": "3.695",
        "epoch_osculation": "2456019.5",
        "eccentricity": ".5108319079750347",
        "semi_major_axis": "1.973455073118153",
        "inclination": ".5232190832133248",
        "ascending_node_longitude": "81.65706203523429",
        "orbital_period": "1012.603193421361",
        "perihelion_distance": ".9653512528141952",
        "perihelion_argument": "151.4343588507166",
        "aphelion_distance": "2.981558893422111",
        "perihelion_time": "2456053.242873016630",
        "mean_anomaly": "348.0037566887941",
        "mean_motion": ".3555193212295134",
        "equinox": "J2000",
        "orbit_class": {
            "orbit_class_type": "APO",
            "orbit_class_description": "Near-Earth asteroid orbits which cross the Earth’s orbit similar to that of 1862 Apollo",
            "orbit_class_range": "a (semi-major axis) > 1.0 AU; q (perihelion) < 1.017 AU"
        }
    },
    "is_sentry_object": false
}